{
  "type": "FeatureCollection",
  "features": [
    {
      "type": "Feature",
      "properties": {
        "OBJECT_NAME": "SKY MEXICO-1",
        "OBJECT_ID": "2015-026B",
        "EPOCH": "2025-11-29T11:47:11.058144",
        "MEAN_MOTION": 1.00272074,
        "ECCENTRICITY": 0.0002453,
        "INCLINATION": 0.0159,
        "RA_OF_ASC_NODE": 309.0118,
        "ARG_OF_PERICENTER": 310.6015,
        "MEAN_ANOMALY": 267.0669,
        "EPHEMERIS_TYPE": 0,
        "CLASSIFICATION_TYPE": "U",
        "NORAD_CAT_ID": 40664,
        "ELEMENT_SET_NO": 999,
        "REV_AT_EPOCH": 3845,
        "BSTAR": 0,
        "MEAN_MOTION_DOT": -2.14e-06,
        "MEAN_MOTION_DDOT": 0,
        "norad_id": 40664,
        "name": "SKY MEXICO-1",
        "group": "intelsat",
        "longitude_deg": NaN,
        "latitude_deg": NaN,
        "alt_km": NaN,
        "orbit_class": "HEO",
        "timestamp": "2025-11-30T04:58:49.603393+00:00"
      },
      "geometry": {
        "type": "Point",
        "coordinates": [
          NaN,
          NaN
        ]
      }
    },
    {
      "type": "Feature",
      "properties": {
        "OBJECT_NAME": "INTELSAT 34 (IS-34)",
        "OBJECT_ID": "2015-039A",
        "EPOCH": "2025-11-29T18:44:41.493984",
        "MEAN_MOTION": 1.00271025,
        "ECCENTRICITY": 7.63e-05,
        "INCLINATION": 0.0126,
        "RA_OF_ASC_NODE": 296.8281,
        "ARG_OF_PERICENTER": 220.2911,
        "MEAN_ANOMALY": 137.4736,
        "EPHEMERIS_TYPE": 0,
        "CLASSIFICATION_TYPE": "U",
        "NORAD_CAT_ID": 40874,
        "ELEMENT_SET_NO": 999,
        "REV_AT_EPOCH": 3762,
        "BSTAR": 0,
        "MEAN_MOTION_DOT": -2.64e-06,
        "MEAN_MOTION_DDOT": 0,
        "norad_id": 40874,
        "name": "INTELSAT 34 (IS-34)",
        "group": "intelsat",
        "longitude_deg": NaN,
        "latitude_deg": NaN,
        "alt_km": NaN,
        "orbit_class": "HEO",
        "timestamp": "2025-11-30T04:58:49.603484+00:00"
      },
      "geometry": {
        "type": "Point",
        "coordinates": [
          NaN,
          NaN
        ]
      }
    },
    {
      "type": "Feature",
      "properties": {
        "OBJECT_NAME": "INTELSAT 31 (IS-31)",
        "OBJECT_ID": "2016-035A",
        "EPOCH": "2025-11-29T13:25:16.663296",
        "MEAN_MOTION": 1.00276725,
        "ECCENTRICITY": 0.000201,
        "INCLINATION": 0.0178,
        "RA_OF_ASC_NODE": 265.2808,
        "ARG_OF_PERICENTER": 317.2935,
        "MEAN_ANOMALY": 312.4086,
        "EPHEMERIS_TYPE": 0,
        "CLASSIFICATION_TYPE": "U",
        "NORAD_CAT_ID": 41581,
        "ELEMENT_SET_NO": 999,
        "REV_AT_EPOCH": 3468,
        "BSTAR": 0,
        "MEAN_MOTION_DOT": -1.31e-06,
        "MEAN_MOTION_DDOT": 0,
        "norad_id": 41581,
        "name": "INTELSAT 31 (IS-31)",
        "group": "intelsat",
        "longitude_deg": NaN,
        "latitude_deg": NaN,
        "alt_km": NaN,
        "orbit_class": "HEO",
        "timestamp": "2025-11-30T04:58:49.604035+00:00"
      },
      "geometry": {
        "type": "Point",
        "coordinates": [
          NaN,
          NaN
        ]
      }
    },
    {
      "type": "Feature",
      "properties": {
        "OBJECT_NAME": "INTELSAT 36 (IS-36)",
        "OBJECT_ID": "2016-053A",
        "EPOCH": "2025-11-29T19:20:15.586944",
        "MEAN_MOTION": 1.00271142,
        "ECCENTRICITY": 0.0001482,
        "INCLINATION": 0.0112,
        "RA_OF_ASC_NODE": 346.9935,
        "ARG_OF_PERICENTER": 341.3962,
        "MEAN_ANOMALY": 99.1397,
        "EPHEMERIS_TYPE": 0,
        "CLASSIFICATION_TYPE": "U",
        "NORAD_CAT_ID": 41747,
        "ELEMENT_SET_NO": 999,
        "REV_AT_EPOCH": 3394,
        "BSTAR": 0,
        "MEAN_MOTION_DOT": -3e-08,
        "MEAN_MOTION_DDOT": 0,
        "norad_id": 41747,
        "name": "INTELSAT 36 (IS-36)",
        "group": "intelsat",
        "longitude_deg": NaN,
        "latitude_deg": NaN,
        "alt_km": NaN,
        "orbit_class": "HEO",
        "timestamp": "2025-11-30T04:58:49.604174+00:00"
      },
      "geometry": {
        "type": "Point",
        "coordinates": [
          NaN,
          NaN
        ]
      }
    },
    {
      "type": "Feature",
      "properties": {
        "OBJECT_NAME": "INTELSAT 32E (IS-32E)",
        "OBJECT_ID": "2017-007B",
        "EPOCH": "2025-11-29T18:48:11.160000",
        "MEAN_MOTION": 1.00271416,
        "ECCENTRICITY": 2.89e-05,
        "INCLINATION": 0.0222,
        "RA_OF_ASC_NODE": 58.6874,
        "ARG_OF_PERICENTER": 94.3633,
        "MEAN_ANOMALY": 154.7567,
        "EPHEMERIS_TYPE": 0,
        "CLASSIFICATION_TYPE": "U",
        "NORAD_CAT_ID": 41945,
        "ELEMENT_SET_NO": 999,
        "REV_AT_EPOCH": 3222,
        "BSTAR": 0,
        "MEAN_MOTION_DOT": -2.48e-06,
        "MEAN_MOTION_DDOT": 0,
        "norad_id": 41945,
        "name": "INTELSAT 32E (IS-32E)",
        "group": "intelsat",
        "longitude_deg": NaN,
        "latitude_deg": NaN,
        "alt_km": NaN,
        "orbit_class": "HEO",
        "timestamp": "2025-11-30T04:58:49.604612+00:00"
      },
      "geometry": {
        "type": "Point",
        "coordinates": [
          NaN,
          NaN
        ]
      }
    },
    {
      "type": "Feature",
      "properties": {
        "OBJECT_NAME": "INTELSAT 35E (IS-35E)",
        "OBJECT_ID": "2017-041A",
        "EPOCH": "2025-11-29T18:50:40.919712",
        "MEAN_MOTION": 1.00272281,
        "ECCENTRICITY": 0.0002228,
        "INCLINATION": 0.0178,
        "RA_OF_ASC_NODE": 321.0177,
        "ARG_OF_PERICENTER": 286.8971,
        "MEAN_ANOMALY": 69.2075,
        "EPHEMERIS_TYPE": 0,
        "CLASSIFICATION_TYPE": "U",
        "NORAD_CAT_ID": 42818,
        "ELEMENT_SET_NO": 999,
        "REV_AT_EPOCH": 3081,
        "BSTAR": 0,
        "MEAN_MOTION_DOT": -2.17e-06,
        "MEAN_MOTION_DDOT": 0,
        "norad_id": 42818,
        "name": "INTELSAT 35E (IS-35E)",
        "group": "intelsat",
        "longitude_deg": NaN,
        "latitude_deg": NaN,
        "alt_km": NaN,
        "orbit_class": "HEO",
        "timestamp": "2025-11-30T04:58:49.604834+00:00"
      },
      "geometry": {
        "type": "Point",
        "coordinates": [
          NaN,
          NaN
        ]
      }
    },
    {
      "type": "Feature",
      "properties": {
        "OBJECT_NAME": "INTELSAT 37E (IS-37E)",
        "OBJECT_ID": "2017-059A",
        "EPOCH": "2025-11-29T18:55:25.466016",
        "MEAN_MOTION": 1.00272248,
        "ECCENTRICITY": 0.0003174,
        "INCLINATION": 0.0201,
        "RA_OF_ASC_NODE": 310.8396,
        "ARG_OF_PERICENTER": 292.6741,
        "MEAN_ANOMALY": 91.2859,
        "EPHEMERIS_TYPE": 0,
        "CLASSIFICATION_TYPE": "U",
        "NORAD_CAT_ID": 42950,
        "ELEMENT_SET_NO": 999,
        "REV_AT_EPOCH": 3006,
        "BSTAR": 0,
        "MEAN_MOTION_DOT": -1.19e-06,
        "MEAN_MOTION_DDOT": 0,
        "norad_id": 42950,
        "name": "INTELSAT 37E (IS-37E)",
        "group": "intelsat",
        "longitude_deg": NaN,
        "latitude_deg": NaN,
        "alt_km": NaN,
        "orbit_class": "HEO",
        "timestamp": "2025-11-30T04:58:49.605011+00:00"
      },
      "geometry": {
        "type": "Point",
        "coordinates": [
          NaN,
          NaN
        ]
      }
    },
    {
      "type": "Feature",
      "properties": {
        "OBJECT_NAME": "AZERSPACE 2 (IS-38)",
        "OBJECT_ID": "2018-074A",
        "EPOCH": "2025-11-29T01:52:38.656416",
        "MEAN_MOTION": 1.00271941,
        "ECCENTRICITY": 0.00014422,
        "INCLINATION": 0.0199,
        "RA_OF_ASC_NODE": 308.5033,
        "ARG_OF_PERICENTER": 290.8666,
        "MEAN_ANOMALY": 262.1379,
        "EPHEMERIS_TYPE": 0,
        "CLASSIFICATION_TYPE": "U",
        "NORAD_CAT_ID": 43632,
        "ELEMENT_SET_NO": 999,
        "REV_AT_EPOCH": 2644,
        "BSTAR": 0,
        "MEAN_MOTION_DOT": 1.57e-06,
        "MEAN_MOTION_DDOT": 0,
        "norad_id": 43632,
        "name": "AZERSPACE 2 (IS-38)",
        "group": "intelsat",
        "longitude_deg": NaN,
        "latitude_deg": NaN,
        "alt_km": NaN,
        "orbit_class": "HEO",
        "timestamp": "2025-11-30T04:58:49.606198+00:00"
      },
      "geometry": {
        "type": "Point",
        "coordinates": [
          NaN,
          NaN
        ]
      }
    }
  ]
}