SKY MEXICO-1            
1 40664U 15026B   25333.49110021 -.00000214  00000+0  00000+0 0  9994
2 40664   0.0159 309.0118 0002453 310.6015 267.0669  1.00272074 38458
INTELSAT 34 (IS-34)     
1 40874U 15039A   25333.78103581 -.00000264  00000+0  00000+0 0  9991
2 40874   0.0126 296.8281 0000763 220.2911 137.4736  1.00271025 37620
INTELSAT 31 (IS-31)     
1 41581U 16035A   25333.55922064 -.00000131  00000+0  00000+0 0  9997
2 41581   0.0178 265.2808 0002010 317.2935 312.4086  1.00276725 34686
INTELSAT 36 (IS-36)     
1 41747U 16053A   25333.80573596 -.00000003  00000+0  00000+0 0  9999
2 41747   0.0112 346.9935 0001482 341.3962  99.1397  1.00271142 33946
INTELSAT 32E (IS-32E)   
1 41945U 17007B   25333.78346250 -.00000248  00000+0  00000+0 0  9992
2 41945   0.0222  58.6874 0000289  94.3633 154.7567  1.00271416 32222
INTELSAT 35E (IS-35E)   
1 42818U 17041A   25333.78519583 -.00000217  00000+0  00000+0 0  9997
2 42818   0.0178 321.0177 0002228 286.8971  69.2075  1.00272281 30811
INTELSAT 37E (IS-37E)   
1 42950U 17059A   25333.78848919 -.00000119  00000+0  00000+0 0  9992
2 42950   0.0201 310.8396 0003174 292.6741  91.2859  1.00272248 30060
AZERSPACE 2 (IS-38)     
1 43632U 18074A   25333.07822519  .00000157  00000+0  00000+0 0  9999
2 43632   0.0199 308.5033 0001442 290.8666 262.1379  1.00271941 26440
